IRIDIUM 171             
1 43929U 19002H   24070.24156270  .00000394  00000+0  13374-3 0  9995
2 43929  86.4026 340.2346 0002336  83.7409 276.4053 14.34217102270148
IRIDIUM 170             
1 43930U 19002J   24070.50264550  .00001464  00000+0  22797-3 0  9995
2 43930  86.6144 339.9616 0002739  84.9168 275.2362 14.72303430277330
IRIDIUM 167             
1 43931U 19002K   24070.23521853  .00000261  00000+0  86119-4 0  9991
2 43931  86.4017 340.0381 0002259  83.6829 276.4624 14.34216613270147
IRIDIUM 181             
1 56726U 23068S   24070.60811779  .00000571  00000+0  16287-3 0  9996
2 56726  86.8659  28.7856 0002972  86.6580 273.4962 14.43610223 42914
IRIDIUM 177             
1 56727U 23068T   24070.52682802  .00002283  00000+0  29689-3 0  9993
2 56727  86.2033   2.1942 0002675  89.0253 271.1275 14.80247914 43783
IRIDIUM 174             
1 56728U 23068U   24070.52140631  .00002264  00000+0  29434-3 0  9990
2 56728  86.2040   2.2923 0002581  90.6473 269.5044 14.80247482 43785
IRIDIUM 178             
1 56729U 23068V   24070.58360762  .00002090  00000+0  27150-3 0  9996
2 56729  86.5833  15.0407 0002542  90.5222 269.6291 14.80248588 43790
IRIDIUM 179             
1 56730U 23068W   24070.57819562  .00002120  00000+0  27551-3 0  9993
2 56730  86.6839  17.9323 0002635  92.6947 267.4577 14.80247705 43790
