<?xml version="1.0" encoding="UTF-8"?>
<ndm xmlns:xsi="http://www.w3.org/2001/XMLSchema-instance" xsi:noNamespaceSchemaLocation="https://sanaregistry.org/r/ndmxml_unqualified/ndmxml-2.0.0-master-2.0.xsd">
<omm id="CCSDS_OMM_VERS" version="2.0">
<header><CREATION_DATE/><ORIGINATOR/></header><body><segment><metadata><OBJECT_NAME>IRIDIUM 171</OBJECT_NAME><OBJECT_ID>2019-002H</OBJECT_ID><CENTER_NAME>EARTH</CENTER_NAME><REF_FRAME>TEME</REF_FRAME><TIME_SYSTEM>UTC</TIME_SYSTEM><MEAN_ELEMENT_THEORY>SGP4</MEAN_ELEMENT_THEORY></metadata><data><meanElements><EPOCH>2024-03-10T05:47:51.017280</EPOCH><MEAN_MOTION>14.34217102</MEAN_MOTION><ECCENTRICITY>.0002336</ECCENTRICITY><INCLINATION>86.4026</INCLINATION><RA_OF_ASC_NODE>340.2346</RA_OF_ASC_NODE><ARG_OF_PERICENTER>83.7409</ARG_OF_PERICENTER><MEAN_ANOMALY>276.4053</MEAN_ANOMALY></meanElements><tleParameters><EPHEMERIS_TYPE>0</EPHEMERIS_TYPE><CLASSIFICATION_TYPE>U</CLASSIFICATION_TYPE><NORAD_CAT_ID>43929</NORAD_CAT_ID><ELEMENT_SET_NO>999</ELEMENT_SET_NO><REV_AT_EPOCH>27014</REV_AT_EPOCH><BSTAR>.13374E-3</BSTAR><MEAN_MOTION_DOT>.394E-5</MEAN_MOTION_DOT><MEAN_MOTION_DDOT>0</MEAN_MOTION_DDOT></tleParameters></data></segment></body></omm>
<omm id="CCSDS_OMM_VERS" version="2.0">
<header><CREATION_DATE/><ORIGINATOR/></header><body><segment><metadata><OBJECT_NAME>IRIDIUM 170</OBJECT_NAME><OBJECT_ID>2019-002J</OBJECT_ID><CENTER_NAME>EARTH</CENTER_NAME><REF_FRAME>TEME</REF_FRAME><TIME_SYSTEM>UTC</TIME_SYSTEM><MEAN_ELEMENT_THEORY>SGP4</MEAN_ELEMENT_THEORY></metadata><data><meanElements><EPOCH>2024-03-10T12:03:48.571200</EPOCH><MEAN_MOTION>14.72303430</MEAN_MOTION><ECCENTRICITY>.0002739</ECCENTRICITY><INCLINATION>86.6144</INCLINATION><RA_OF_ASC_NODE>339.9616</RA_OF_ASC_NODE><ARG_OF_PERICENTER>84.9168</ARG_OF_PERICENTER><MEAN_ANOMALY>275.2362</MEAN_ANOMALY></meanElements><tleParameters><EPHEMERIS_TYPE>0</EPHEMERIS_TYPE><CLASSIFICATION_TYPE>U</CLASSIFICATION_TYPE><NORAD_CAT_ID>43930</NORAD_CAT_ID><ELEMENT_SET_NO>999</ELEMENT_SET_NO><REV_AT_EPOCH>27733</REV_AT_EPOCH><BSTAR>.22797E-3</BSTAR><MEAN_MOTION_DOT>.1464E-4</MEAN_MOTION_DOT><MEAN_MOTION_DDOT>0</MEAN_MOTION_DDOT></tleParameters></data></segment></body></omm>
<omm id="CCSDS_OMM_VERS" version="2.0">
<header><CREATION_DATE/><ORIGINATOR/></header><body><segment><metadata><OBJECT_NAME>IRIDIUM 167</OBJECT_NAME><OBJECT_ID>2019-002K</OBJECT_ID><CENTER_NAME>EARTH</CENTER_NAME><REF_FRAME>TEME</REF_FRAME><TIME_SYSTEM>UTC</TIME_SYSTEM><MEAN_ELEMENT_THEORY>SGP4</MEAN_ELEMENT_THEORY></metadata><data><meanElements><EPOCH>2024-03-10T05:38:42.880992</EPOCH><MEAN_MOTION>14.34216613</MEAN_MOTION><ECCENTRICITY>.0002259</ECCENTRICITY><INCLINATION>86.4017</INCLINATION><RA_OF_ASC_NODE>340.0381</RA_OF_ASC_NODE><ARG_OF_PERICENTER>83.6829</ARG_OF_PERICENTER><MEAN_ANOMALY>276.4624</MEAN_ANOMALY></meanElements><tleParameters><EPHEMERIS_TYPE>0</EPHEMERIS_TYPE><CLASSIFICATION_TYPE>U</CLASSIFICATION_TYPE><NORAD_CAT_ID>43931</NORAD_CAT_ID><ELEMENT_SET_NO>999</ELEMENT_SET_NO><REV_AT_EPOCH>27014</REV_AT_EPOCH><BSTAR>.86119E-4</BSTAR><MEAN_MOTION_DOT>.261E-5</MEAN_MOTION_DOT><MEAN_MOTION_DDOT>0</MEAN_MOTION_DDOT></tleParameters></data></segment></body></omm>
<omm id="CCSDS_OMM_VERS" version="2.0">
<header><CREATION_DATE/><ORIGINATOR/></header><body><segment><metadata><OBJECT_NAME>IRIDIUM 181</OBJECT_NAME><OBJECT_ID>2023-068S</OBJECT_ID><CENTER_NAME>EARTH</CENTER_NAME><REF_FRAME>TEME</REF_FRAME><TIME_SYSTEM>UTC</TIME_SYSTEM><MEAN_ELEMENT_THEORY>SGP4</MEAN_ELEMENT_THEORY></metadata><data><meanElements><EPOCH>2024-03-10T14:35:41.377056</EPOCH><MEAN_MOTION>14.43610223</MEAN_MOTION><ECCENTRICITY>.0002972</ECCENTRICITY><INCLINATION>86.8659</INCLINATION><RA_OF_ASC_NODE>28.7856</RA_OF_ASC_NODE><ARG_OF_PERICENTER>86.6580</ARG_OF_PERICENTER><MEAN_ANOMALY>273.4962</MEAN_ANOMALY></meanElements><tleParameters><EPHEMERIS_TYPE>0</EPHEMERIS_TYPE><CLASSIFICATION_TYPE>U</CLASSIFICATION_TYPE><NORAD_CAT_ID>56726</NORAD_CAT_ID><ELEMENT_SET_NO>999</ELEMENT_SET_NO><REV_AT_EPOCH>4291</REV_AT_EPOCH><BSTAR>.16287E-3</BSTAR><MEAN_MOTION_DOT>.571E-5</MEAN_MOTION_DOT><MEAN_MOTION_DDOT>0</MEAN_MOTION_DDOT></tleParameters></data></segment></body></omm>
<omm id="CCSDS_OMM_VERS" version="2.0">
<header><CREATION_DATE/><ORIGINATOR/></header><body><segment><metadata><OBJECT_NAME>IRIDIUM 177</OBJECT_NAME><OBJECT_ID>2023-068T</OBJECT_ID><CENTER_NAME>EARTH</CENTER_NAME><REF_FRAME>TEME</REF_FRAME><TIME_SYSTEM>UTC</TIME_SYSTEM><MEAN_ELEMENT_THEORY>SGP4</MEAN_ELEMENT_THEORY></metadata><data><meanElements><EPOCH>2024-03-10T12:38:37.940928</EPOCH><MEAN_MOTION>14.80247914</MEAN_MOTION><ECCENTRICITY>.0002675</ECCENTRICITY><INCLINATION>86.2033</INCLINATION><RA_OF_ASC_NODE>2.1942</RA_OF_ASC_NODE><ARG_OF_PERICENTER>89.0253</ARG_OF_PERICENTER><MEAN_ANOMALY>271.1275</MEAN_ANOMALY></meanElements><tleParameters><EPHEMERIS_TYPE>0</EPHEMERIS_TYPE><CLASSIFICATION_TYPE>U</CLASSIFICATION_TYPE><NORAD_CAT_ID>56727</NORAD_CAT_ID><ELEMENT_SET_NO>999</ELEMENT_SET_NO><REV_AT_EPOCH>4378</REV_AT_EPOCH><BSTAR>.29689E-3</BSTAR><MEAN_MOTION_DOT>.2283E-4</MEAN_MOTION_DOT><MEAN_MOTION_DDOT>0</MEAN_MOTION_DDOT></tleParameters></data></segment></body></omm>
<omm id="CCSDS_OMM_VERS" version="2.0">
<header><CREATION_DATE/><ORIGINATOR/></header><body><segment><metadata><OBJECT_NAME>IRIDIUM 174</OBJECT_NAME><OBJECT_ID>2023-068U</OBJECT_ID><CENTER_NAME>EARTH</CENTER_NAME><REF_FRAME>TEME</REF_FRAME><TIME_SYSTEM>UTC</TIME_SYSTEM><MEAN_ELEMENT_THEORY>SGP4</MEAN_ELEMENT_THEORY></metadata><data><meanElements><EPOCH>2024-03-10T12:30:49.505184</EPOCH><MEAN_MOTION>14.80247482</MEAN_MOTION><ECCENTRICITY>.0002581</ECCENTRICITY><INCLINATION>86.2040</INCLINATION><RA_OF_ASC_NODE>2.2923</RA_OF_ASC_NODE><ARG_OF_PERICENTER>90.6473</ARG_OF_PERICENTER><MEAN_ANOMALY>269.5044</MEAN_ANOMALY></meanElements><tleParameters><EPHEMERIS_TYPE>0</EPHEMERIS_TYPE><CLASSIFICATION_TYPE>U</CLASSIFICATION_TYPE><NORAD_CAT_ID>56728</NORAD_CAT_ID><ELEMENT_SET_NO>999</ELEMENT_SET_NO><REV_AT_EPOCH>4378</REV_AT_EPOCH><BSTAR>.29434E-3</BSTAR><MEAN_MOTION_DOT>.2264E-4</MEAN_MOTION_DOT><MEAN_MOTION_DDOT>0</MEAN_MOTION_DDOT></tleParameters></data></segment></body></omm>
<omm id="CCSDS_OMM_VERS" version="2.0">
<header><CREATION_DATE/><ORIGINATOR/></header><body><segment><metadata><OBJECT_NAME>IRIDIUM 178</OBJECT_NAME><OBJECT_ID>2023-068V</OBJECT_ID><CENTER_NAME>EARTH</CENTER_NAME><REF_FRAME>TEME</REF_FRAME><TIME_SYSTEM>UTC</TIME_SYSTEM><MEAN_ELEMENT_THEORY>SGP4</MEAN_ELEMENT_THEORY></metadata><data><meanElements><EPOCH>2024-03-10T14:00:23.698368</EPOCH><MEAN_MOTION>14.80248588</MEAN_MOTION><ECCENTRICITY>.0002542</ECCENTRICITY><INCLINATION>86.5833</INCLINATION><RA_OF_ASC_NODE>15.0407</RA_OF_ASC_NODE><ARG_OF_PERICENTER>90.5222</ARG_OF_PERICENTER><MEAN_ANOMALY>269.6291</MEAN_ANOMALY></meanElements><tleParameters><EPHEMERIS_TYPE>0</EPHEMERIS_TYPE><CLASSIFICATION_TYPE>U</CLASSIFICATION_TYPE><NORAD_CAT_ID>56729</NORAD_CAT_ID><ELEMENT_SET_NO>999</ELEMENT_SET_NO><REV_AT_EPOCH>4379</REV_AT_EPOCH><BSTAR>.2715E-3</BSTAR><MEAN_MOTION_DOT>.209E-4</MEAN_MOTION_DOT><MEAN_MOTION_DDOT>0</MEAN_MOTION_DDOT></tleParameters></data></segment></body></omm>
<omm id="CCSDS_OMM_VERS" version="2.0">
<header><CREATION_DATE/><ORIGINATOR/></header><body><segment><metadata><OBJECT_NAME>IRIDIUM 179</OBJECT_NAME><OBJECT_ID>2023-068W</OBJECT_ID><CENTER_NAME>EARTH</CENTER_NAME><REF_FRAME>TEME</REF_FRAME><TIME_SYSTEM>UTC</TIME_SYSTEM><MEAN_ELEMENT_THEORY>SGP4</MEAN_ELEMENT_THEORY></metadata><data><meanElements><EPOCH>2024-03-10T13:52:36.101568</EPOCH><MEAN_MOTION>14.80247705</MEAN_MOTION><ECCENTRICITY>.0002635</ECCENTRICITY><INCLINATION>86.6839</INCLINATION><RA_OF_ASC_NODE>17.9323</RA_OF_ASC_NODE><ARG_OF_PERICENTER>92.6947</ARG_OF_PERICENTER><MEAN_ANOMALY>267.4577</MEAN_ANOMALY></meanElements><tleParameters><EPHEMERIS_TYPE>0</EPHEMERIS_TYPE><CLASSIFICATION_TYPE>U</CLASSIFICATION_TYPE><NORAD_CAT_ID>56730</NORAD_CAT_ID><ELEMENT_SET_NO>999</ELEMENT_SET_NO><REV_AT_EPOCH>4379</REV_AT_EPOCH><BSTAR>.27551E-3</BSTAR><MEAN_MOTION_DOT>.212E-4</MEAN_MOTION_DOT><MEAN_MOTION_DDOT>0</MEAN_MOTION_DDOT></tleParameters></data></segment></body></omm>
</ndm>
